PROBA-1                 
1 26958U 01049B   24185.52700748  .00004190  00000+0  31903-3 0  9999
2 26958  97.9171 162.4030 0058933  10.0919 350.1473 15.01279077236340
CUTE-1 (CO-55)          
1 27844U 03031E   24185.54067690  .00000587  00000+0  27824-3 0  9994
2 27844  98.6763 192.3414 0011053  96.6847 263.5590 14.23298513 90142
CUBESAT XI-IV (CO-57)   
1 27848U 03031J   24184.56702074  .00000545  00000+0  26263-3 0  9991
2 27848  98.6794 191.6177 0010821 113.4503 246.7813 14.22733909 89777
GENESIS 1               
1 29252U 06029A   24185.15805962  .00020717  00000+0  52480-3 0  9991
2 29252  64.5153 112.1374 0025824 321.4782  38.4508 15.39431001993111
GENESIS 2               
1 31789U 07028A   24185.21498953  .00017011  00000+0  46020-3 0  9990
2 31789  64.4878 157.6650 0020103 226.5727 133.3733 15.37644953939948
APRIZESAT 4             
1 35684U 09041D   24184.69243060  .00001662  00000+0  21560-3 0  9990
2 35684  98.2356 231.9545 0046528 112.6339 247.9803 14.81464110805477
APRIZESAT 3             
1 35686U 09041F   24184.86281895  .00002905  00000+0  28583-3 0  9992
2 35686  98.1180 299.4222 0066355 261.2681  98.1017 14.91327593809702
PROBA-2                 
1 36037U 09059B   24184.76313573  .00000467  00000+0  12135-3 0  9997
2 36037  98.2313   7.9324 0012652 331.7638  28.2871 14.53965472777677
APRIZESAT 5             
1 37792U 11044E   24185.31032958  .00001606  00000+0  22503-3 0  9996
2 37792  98.2422  89.5381 0056305 136.7666 223.7984 14.77906795693351
APRIZESAT 6             
1 37793U 11044F   24185.55793479  .00001147  00000+0  17809-3 0  9998
2 37793  98.3003  69.3525 0044507 203.1566 228.7892 14.74499870692038
PROBA-V                 
1 39159U 13021A   24185.52535314  .00000159  00000+0  88221-4 0  9991
2 39159  98.3060 191.1301 0005382  69.9858 290.1900 14.23276238579587
APRIZESAT 7             
1 39416U 13066A   24185.45951504  .00002251  00000+0  25085-3 0  9994
2 39416  97.6713 144.1438 0040060  56.1161 304.3857 14.87470052574984
APRIZESAT 8             
1 39425U 13066K   24185.45283399  .00001679  00000+0  20251-3 0  9997
2 39425  97.7294 137.4558 0050559 111.7222 248.9386 14.84211652573926
BUGSAT-1 (TITA)         
1 40014U 14033E   24184.90547638  .00007096  00000+0  50741-3 0  9992
2 40014  98.1255 227.3000 0037124  82.3945 278.1494 15.04234782548001
SAUDISAT 4              
1 40016U 14033G   24185.45142319  .00001259  00000+0  18180-3 0  9998
2 40016  97.6675 350.4516 0045614 234.8200 124.8735 14.77212973540626
APRIZESAT 9             
1 40018U 14033J   24185.36712602  .00000945  00000+0  15323-3 0  9995
2 40018  97.8053 330.3576 0068224 336.1145  23.6901 14.71985243538583
APRIZESAT 10            
1 40019U 14033K   24185.35205466  .00000976  00000+0  16680-3 0  9991
2 40019  97.8701 322.1664 0082211  34.0280 326.6159 14.68901470537550
TECHDEMOSAT-1 (TDS-1)   
1 40076U 14037H   24185.53652291  .00008797  00000+0  81742-3 0  9990
2 40076  98.3283 108.9785 0006312 144.0344 216.1301 14.94614993540960
TIANTUO 2               
1 40144U 14053B   24185.49972454  .00031136  00000+0  35183-3 0  9996
2 40144  97.1229 266.7067 0004897 354.4715   5.6489 15.62405210550554
TECHNOSAT               
1 42829U 17042E   24185.49521046  .00003819  00000+0  33807-3 0  9994
2 42829  97.3832   5.6517 0012718  24.5627 335.6199 14.96763883379615
FLYING LAPTOP           
1 42831U 17042G   24185.17604257  .00003024  00000+0  27923-3 0  9998
2 42831  97.3857   5.1947 0013313  29.9418 330.2562 14.95249301379524
HAWK-A                  
1 43765U 18099H   24184.74755564  .00005160  00000+0  38537-3 0  9994
2 43765  97.4991 241.5727 0008365 215.9705 144.0959 15.03214766304986
HAWK-B                  
1 43794U 18099AN  24184.68137960  .00005211  00000+0  38915-3 0  9990
2 43794  97.4989 241.5103 0008160 217.4633 142.6025 15.03215895304963
HAWK-C                  
1 43799U 18099AT  24185.14713192  .00004748  00000+0  35491-3 0  9994
2 43799  97.4991 241.8551 0008188 215.0150 145.0538 15.03218169305031
SALSAT                  
1 46495U 20068K   24185.14353657  .00007201  00000+0  40643-3 0  9997
2 46495  97.8164 144.8395 0011784 256.7026 103.2891 15.13409327206724
HAWK-2C                 
1 47502U 21006CT  24185.07975719  .00007916  00000+0  37079-3 0  9993
2 47502  97.3315 234.5773 0008858 213.1838 146.8843 15.19941900190434
HAWK-2A                 
1 47505U 21006CW  24185.14575191  .00007296  00000+0  34207-3 0  9995
2 47505  97.3374 234.8748 0007938 215.1767 144.8945 15.19943325190443
HAWK-2B                 
1 47508U 21006CZ  24184.68515644  .00007832  00000+0  36700-3 0  9999
2 47508  97.3226 234.0086 0008611 216.4319 143.6332 15.19932909190370
HAWK-3B                 
1 48931U 21059BE  24185.40558987  .00010994  00000+0  39095-3 0  9999
2 48931  97.6309 330.1134 0011880  30.6795 329.5137 15.29105545167511
HAWK-3C                 
1 48948U 21059BX  24185.40527718  .00010481  00000+0  37266-3 0  9994
2 48948  97.6568 333.7459 0012765  34.8512 325.3560 15.29114088167517
HAWK-3A                 
1 48957U 21059CG  24184.88165481  .00012348  00000+0  43862-3 0  9993
2 48957  97.6437 331.3993 0012776  29.9871 330.2097 15.29100850167437
HAWK-4B                 
1 52165U 22033J   24185.19655983  .00018350  00000+0  46235-3 0  9994
2 52165  97.3262 267.9839 0006379 235.5911 124.4732 15.39923001125773
HAWK-4A                 
1 52167U 22033L   24185.19636901  .00018584  00000+0  46818-3 0  9991
2 52167  97.3205 267.4619 0005889 233.8607 126.2094 15.39927492125770
HAWK-4C                 
1 52170U 22033P   24184.80631638  .00018650  00000+0  46987-3 0  9995
2 52170  97.3259 267.5703 0007774 225.3974 134.6639 15.39911823125719
HAWK-5C                 
1 52754U 22057Y   24184.82198534  .00010391  00000+0  43266-3 0  9995
2 52754  97.5796 307.2244 0009363  98.0954 262.1345 15.23893314116590
HAWK-5B                 
1 52756U 22057AA  24184.88750236  .00010495  00000+0  43689-3 0  9990
2 52756  97.5797 305.7379 0009901  93.3757 266.8613 15.23893611116603
HAWK-5A                 
1 52757U 22057AB  24184.88726916  .00010673  00000+0  44417-3 0  9997
2 52757  97.5797 306.5078 0010252  96.1766 264.0639 15.23894801116601
HAWK-6B                 
1 55324U 23011A   24185.32727506  .00005189  00000+0  31003-3 0  9990
2 55324  40.5151 163.0033 0005974 266.2137  93.7985 15.11563780 79346
HAWK-6C                 
1 55326U 23011C   24184.66613549  .00005556  00000+0  33115-3 0  9993
2 55326  40.4839 165.3174 0006648 260.7178  99.2875 15.11562515 79258
HAWK-6A                 
1 55327U 23011D   24185.06247117  .00005636  00000+0  33574-3 0  9991
2 55327  40.4997 163.8090 0006689 257.0166 102.9893 15.11567563 79312
HAWK-7A                 
1 56191U 23054P   24185.21231808  .00006132  00000+0  29565-3 0  9992
2 56191  97.3702  76.5414 0010504  84.3956 275.8477 15.19019685 68159
HAWK-7B                 
1 56193U 23054R   24185.21224366  .00003286  00000+0  15997-3 0  9996
2 56193  97.3570  75.2431 0011273  95.7977 264.4543 15.19013390 68157
HAWK-7C                 
1 56200U 23054Y   24185.40957382  .00006115  00000+0  29480-3 0  9993
2 56200  97.3611  76.2276 0010358  92.8516 267.3904 15.19022624 68186
